{"fetched_at":"2026-07-15T17:47:38.377Z","source":"https://celestrak.org/NORAD/elements/gp.php?NAME=UMBRA&FORMAT=JSON","constellation":"umbra","records":[{"OBJECT_NAME":"UMBRA-07","OBJECT_ID":"2023-174AT","EPOCH":"2026-07-15T03:33:06.492384","CLASSIFICATION_TYPE":"U","MEAN_MOTION":15.09620421,"ECCENTRICITY":0.000234,"INCLINATION":97.3782,"RA_OF_ASC_NODE":250.8582,"ARG_OF_PERICENTER":20.735,"MEAN_ANOMALY":339.3974,"EPHEMERIS_TYPE":0,"NORAD_CAT_ID":58297,"ELEMENT_SET_NO":999,"REV_AT_EPOCH":14763,"BSTAR":0.0003101,"MEAN_MOTION_DOT":0.00004926,"MEAN_MOTION_DDOT":0},{"OBJECT_NAME":"UMBRA-09","OBJECT_ID":"2024-149CB","EPOCH":"2026-07-15T03:21:33.547104","CLASSIFICATION_TYPE":"U","MEAN_MOTION":15.18847849,"ECCENTRICITY":0.0002011,"INCLINATION":97.6975,"RA_OF_ASC_NODE":283.8399,"ARG_OF_PERICENTER":203.0336,"MEAN_ANOMALY":157.0808,"EPHEMERIS_TYPE":0,"NORAD_CAT_ID":60541,"ELEMENT_SET_NO":999,"REV_AT_EPOCH":10496,"BSTAR":0.0004312,"MEAN_MOTION_DOT":0.00008917,"MEAN_MOTION_DDOT":0},{"OBJECT_NAME":"UMBRA-10","OBJECT_ID":"2024-149CH","EPOCH":"2026-07-15T03:20:54.157344","CLASSIFICATION_TYPE":"U","MEAN_MOTION":15.18848539,"ECCENTRICITY":0.0001704,"INCLINATION":97.6982,"RA_OF_ASC_NODE":283.8693,"ARG_OF_PERICENTER":167.4412,"MEAN_ANOMALY":192.6864,"EPHEMERIS_TYPE":0,"NORAD_CAT_ID":60547,"ELEMENT_SET_NO":999,"REV_AT_EPOCH":10497,"BSTAR":0.00041956,"MEAN_MOTION_DOT":0.00008674,"MEAN_MOTION_DDOT":0},{"OBJECT_NAME":"UMBRA-11","OBJECT_ID":"2025-276CL","EPOCH":"2026-07-15T04:01:12.300672","CLASSIFICATION_TYPE":"U","MEAN_MOTION":15.27780072,"ECCENTRICITY":0.0002721,"INCLINATION":97.4192,"RA_OF_ASC_NODE":270.6435,"ARG_OF_PERICENTER":185.7906,"MEAN_ANOMALY":174.3302,"EPHEMERIS_TYPE":0,"NORAD_CAT_ID":66748,"ELEMENT_SET_NO":999,"REV_AT_EPOCH":3476,"BSTAR":0.00045883,"MEAN_MOTION_DOT":0.00012385,"MEAN_MOTION_DDOT":0},{"OBJECT_NAME":"UMBRA-12","OBJECT_ID":"2026-004J","EPOCH":"2026-07-14T23:41:46.876704","CLASSIFICATION_TYPE":"U","MEAN_MOTION":14.89531367,"ECCENTRICITY":0.0007409,"INCLINATION":97.802,"RA_OF_ASC_NODE":194.3761,"ARG_OF_PERICENTER":53.5886,"MEAN_ANOMALY":306.6013,"EPHEMERIS_TYPE":0,"NORAD_CAT_ID":67371,"ELEMENT_SET_NO":999,"REV_AT_EPOCH":2744,"BSTAR":0.00022582,"MEAN_MOTION_DOT":0.00002098,"MEAN_MOTION_DDOT":0}]}
