UMBRA-07                
1 58297U 23174AT  26196.14799181  .00004926  00000+0  31010-3 0  9990
2 58297  97.3782 250.8582 0002340  20.7350 339.3974 15.09620421147634
UMBRA-09                
1 60541U 24149CB  26196.13997161  .00008917  00000+0  43120-3 0  9994
2 60541  97.6975 283.8399 0002011 203.0336 157.0808 15.18847849104968
UMBRA-10                
1 60547U 24149CH  26196.13951571  .00008674  00000+0  41956-3 0  9990
2 60547  97.6982 283.8693 0001704 167.4412 192.6864 15.18848539104970
UMBRA-11                
1 66748U 25276CL  26196.16750348  .00012385  00000+0  45883-3 0  9990
2 66748  97.4192 270.6435 0002721 185.7906 174.3302 15.27780072 34769
UMBRA-12                
1 67371U 26004J   26195.98734811  .00002098  00000+0  22582-3 0  9990
2 67371  97.8020 194.3761 0007409  53.5886 306.6013 14.89531367 27441
